start=new Date('2023-05-22T00:00:00.000Z').valueOf();
sats=[{"EPHEMERIS_TYPE":"0","SEMIMAJOR_AXIS":"6917.939","OBJECT_ID":"2022-029V","ELEMENT_SET_NO":"999","CENTER_NAME":"EARTH","TLE_LINE2":"2 52107  53.2159 350.6931 0000914  94.2859 265.8238 15.08820850 66373","COUNTRY_CODE":"US","BSTAR":"-0.00020329000000","CLASSIFICATION_TYPE":"U","PERIOD":"95.439","APOAPSIS":"540.436","MEAN_MOTION_DDOT":"0.0000000000000","OBJECT_TYPE":"PAYLOAD","RCS_SIZE":"LARGE","EPOCH":"2023-05-21T21:06:43.488864","OBJECT_NAME":"STARLINK-3658","LAUNCH_DATE":"2022-03-19","MEAN_MOTION_DOT":"-0.00003520","FILE":"3914061","DECAY_DATE":null,"GP_ID":"232283379","NORAD_CAT_ID":"52107","ARG_OF_PERICENTER":"94.2859","TIME_SYSTEM":"UTC","ECCENTRICITY":"0.00009140","RA_OF_ASC_NODE":"350.6931","SITE":"AFETR","PERIAPSIS":"539.172","INCLINATION":"53.2159","MEAN_MOTION":"15.08820850","TLE_LINE1":"1 52107U 22029V   23141.87967001 -.00003520  00000-0 -20329-3 0  9990","MEAN_ELEMENT_THEORY":"SGP4","MEAN_ANOMALY":"265.8238","REF_FRAME":"TEME","REV_AT_EPOCH":"6637"},{"COUNTRY_CODE":"US","TLE_LINE2":"2 52108  53.2166 351.2519 0001260  88.9183 271.1954 15.08826462 66354","BSTAR":"-0.00019312000000","ELEMENT_SET_NO":"999","CENTER_NAME":"EARTH","EPHEMERIS_TYPE":"0","SEMIMAJOR_AXIS":"6917.922","OBJECT_ID":"2022-029W","LAUNCH_DATE":"2022-03-19","RCS_SIZE":"LARGE","EPOCH":"2023-05-21T18:06:32.880672","OBJECT_NAME":"STARLINK-3698","CLASSIFICATION_TYPE":"U","PERIOD":"95.438","APOAPSIS":"540.658","MEAN_MOTION_DDOT":"0.0000000000000","OBJECT_TYPE":"PAYLOAD","ARG_OF_PERICENTER":"88.9183","TIME_SYSTEM":"UTC","GP_ID":"232283629","NORAD_CAT_ID":"52108","FILE":"3914061","DECAY_DATE":null,"MEAN_MOTION_DOT":"-0.00003359","REF_FRAME":"TEME","REV_AT_EPOCH":"6635","MEAN_MOTION":"15.08826462","TLE_LINE1":"1 52108U 22029W   23141.75454723 -.00003359  00000-0 -19312-3 0  9990","MEAN_ANOMALY":"271.1954","MEAN_ELEMENT_THEORY":"SGP4","PERIAPSIS":"538.915","INCLINATION":"53.2166","ECCENTRICITY":"0.00012600","RA_OF_ASC_NODE":"351.2519","SITE":"AFETR"},{"PERIAPSIS":"539.123","INCLINATION":"53.2168","ECCENTRICITY":"0.00009750","RA_OF_ASC_NODE":"350.6780","SITE":"AFETR","REF_FRAME":"TEME","REV_AT_EPOCH":"6637","MEAN_MOTION":"15.08822920","TLE_LINE1":"1 52110U 22029Y   23141.88334937 -.00002993  00000-0 -17012-3 0  9999","MEAN_ELEMENT_THEORY":"SGP4","MEAN_ANOMALY":"275.7610","FILE":"3914061","DECAY_DATE":null,"MEAN_MOTION_DOT":"-0.00002993","TIME_SYSTEM":"UTC","ARG_OF_PERICENTER":"84.3493","GP_ID":"232284881","NORAD_CAT_ID":"52110","CLASSIFICATION_TYPE":"U","PERIOD":"95.439","APOAPSIS":"540.472","MEAN_MOTION_DDOT":"0.0000000000000","OBJECT_TYPE":"PAYLOAD","LAUNCH_DATE":"2022-03-19","RCS_SIZE":"LARGE","EPOCH":"2023-05-21T21:12:01.385568","OBJECT_NAME":"STARLINK-3687","ELEMENT_SET_NO":"999","CENTER_NAME":"EARTH","EPHEMERIS_TYPE":"0","SEMIMAJOR_AXIS":"6917.933","OBJECT_ID":"2022-029Y","TLE_LINE2":"2 52110  53.2168 350.6780 0000975  84.3493 275.7610 15.08822920 66374","COUNTRY_CODE":"US","BSTAR":"-0.00017012000000"},{"BSTAR":"-0.00016619000000","COUNTRY_CODE":"US","TLE_LINE2":"2 52111  53.2169 350.7378 0000776  89.1588 270.9493 15.08825251 66373","CENTER_NAME":"EARTH","ELEMENT_SET_NO":"999","OBJECT_ID":"2022-029Z","SEMIMAJOR_AXIS":"6917.925","EPHEMERIS_TYPE":"0","LAUNCH_DATE":"2022-03-19","OBJECT_NAME":"STARLINK-3708","EPOCH":"2023-05-21T20:50:49.513632","RCS_SIZE":"LARGE","OBJECT_TYPE":"PAYLOAD","MEAN_MOTION_DDOT":"0.0000000000000","APOAPSIS":"540.327","PERIOD":"95.438","CLASSIFICATION_TYPE":"U","TIME_SYSTEM":"UTC","ARG_OF_PERICENTER":"89.1588","NORAD_CAT_ID":"52111","GP_ID":"232284631","DECAY_DATE":null,"FILE":"3914061","MEAN_MOTION_DOT":"-0.00002930","REV_AT_EPOCH":"6637","REF_FRAME":"TEME","MEAN_ELEMENT_THEORY":"SGP4","MEAN_ANOMALY":"270.9493","TLE_LINE1":"1 52111U 22029Z   23141.86862863 -.00002930  00000-0 -16619-3 0  9995","MEAN_MOTION":"15.08825251","INCLINATION":"53.2169","PERIAPSIS":"539.254","SITE":"AFETR","RA_OF_ASC_NODE":"350.7378","ECCENTRICITY":"0.00007760"},{"PERIOD":"95.437","CLASSIFICATION_TYPE":"U","OBJECT_TYPE":"PAYLOAD","APOAPSIS":"540.383","MEAN_MOTION_DDOT":"0.0000000000000","LAUNCH_DATE":"2022-03-19","EPOCH":"2023-05-21T21:01:24.185568","RCS_SIZE":"LARGE","OBJECT_NAME":"STARLINK-3734","ELEMENT_SET_NO":"999","CENTER_NAME":"EARTH","EPHEMERIS_TYPE":"0","OBJECT_ID":"2022-029AA","SEMIMAJOR_AXIS":"6917.856","COUNTRY_CODE":"US","TLE_LINE2":"2 52112  53.2161 350.7110 0000957  94.9996 265.1106 15.08848068 66376","BSTAR":"0.00018226000000","INCLINATION":"53.2161","PERIAPSIS":"539.059","ECCENTRICITY":"0.00009570","SITE":"AFETR","RA_OF_ASC_NODE":"350.7110","REF_FRAME":"TEME","REV_AT_EPOCH":"6637","TLE_LINE1":"1 52112U 22029AA  23141.87597437  .00002615  00000-0  18226-3 0  9993","MEAN_MOTION":"15.08848068","MEAN_ELEMENT_THEORY":"SGP4","MEAN_ANOMALY":"265.1106","FILE":"3914061","DECAY_DATE":null,"MEAN_MOTION_DOT":"0.00002615","ARG_OF_PERICENTER":"94.9996","TIME_SYSTEM":"UTC","GP_ID":"232283880","NORAD_CAT_ID":"52112"},{"ELEMENT_SET_NO":"999","CENTER_NAME":"EARTH","EPHEMERIS_TYPE":"0","OBJECT_ID":"2022-029AB","SEMIMAJOR_AXIS":"6917.922","COUNTRY_CODE":"US","TLE_LINE2":"2 52113  53.2167 350.7735 0000889  69.2750 290.8338 15.08826310 66371","BSTAR":"-0.00015277000000","PERIOD":"95.438","CLASSIFICATION_TYPE":"U","OBJECT_TYPE":"PAYLOAD","MEAN_MOTION_DDOT":"0.0000000000000","APOAPSIS":"540.402","LAUNCH_DATE":"2022-03-19","EPOCH":"2023-05-21T20:40:13.618272","RCS_SIZE":"LARGE","OBJECT_NAME":"STARLINK-3736","FILE":"3914061","DECAY_DATE":null,"MEAN_MOTION_DOT":"-0.00002717","TIME_SYSTEM":"UTC","ARG_OF_PERICENTER":"69.2750","GP_ID":"232284130","NORAD_CAT_ID":"52113","INCLINATION":"53.2167","PERIAPSIS":"539.172","ECCENTRICITY":"0.00008890","SITE":"AFETR","RA_OF_ASC_NODE":"350.7735","REF_FRAME":"TEME","REV_AT_EPOCH":"6637","TLE_LINE1":"1 52113U 22029AB  23141.86126873 -.00002717  00000-0 -15277-3 0  9993","MEAN_MOTION":"15.08826310","MEAN_ANOMALY":"290.8338","MEAN_ELEMENT_THEORY":"SGP4"},{"CLASSIFICATION_TYPE":"U","PERIOD":"95.438","APOAPSIS":"540.368","MEAN_MOTION_DDOT":"0.0000000000000","OBJECT_TYPE":"PAYLOAD","LAUNCH_DATE":"2022-03-19","RCS_SIZE":"LARGE","EPOCH":"2023-05-21T20:56:07.317024","OBJECT_NAME":"STARLINK-3737","ELEMENT_SET_NO":"999","CENTER_NAME":"EARTH","EPHEMERIS_TYPE":"0","SEMIMAJOR_AXIS":"6917.923","OBJECT_ID":"2022-029AC","TLE_LINE2":"2 52114  53.2165 350.7245 0000838 101.3834 258.7252 15.08825995 66377","COUNTRY_CODE":"US","BSTAR":"-0.00018871000000","PERIAPSIS":"539.208","INCLINATION":"53.2165","ECCENTRICITY":"0.00008380","RA_OF_ASC_NODE":"350.7245","SITE":"AFETR","REF_FRAME":"TEME","REV_AT_EPOCH":"6637","MEAN_MOTION":"15.08825995","TLE_LINE1":"1 52114U 22029AC  23141.87230691 -.00003289  00000-0 -18871-3 0  9997","MEAN_ELEMENT_THEORY":"SGP4","MEAN_ANOMALY":"258.7252","FILE":"3914061","DECAY_DATE":null,"MEAN_MOTION_DOT":"-0.00003289","ARG_OF_PERICENTER":"101.3834","TIME_SYSTEM":"UTC","GP_ID":"232284381","NORAD_CAT_ID":"52114"},{"FILE":"3914061","DECAY_DATE":null,"MEAN_MOTION_DOT":"-0.00001716","ARG_OF_PERICENTER":"104.7653","TIME_SYSTEM":"UTC","GP_ID":"232285132","NORAD_CAT_ID":"52115","PERIAPSIS":"539.115","INCLINATION":"53.2198","ECCENTRICITY":"0.00009020","RA_OF_ASC_NODE":"350.8075","SITE":"AFETR","REF_FRAME":"TEME","REV_AT_EPOCH":"6637","MEAN_MOTION":"15.08842256","TLE_LINE1":"1 52115U 22029AD  23141.85390517 -.00001716  00000-0 -89771-4 0  9991","MEAN_ELEMENT_THEORY":"SGP4","MEAN_ANOMALY":"255.3439","ELEMENT_SET_NO":"999","CENTER_NAME":"EARTH","EPHEMERIS_TYPE":"0","SEMIMAJOR_AXIS":"6917.873","OBJECT_ID":"2022-029AD","TLE_LINE2":"2 52115  53.2198 350.8075 0000902 104.7653 255.3439 15.08842256 66373","COUNTRY_CODE":"US","BSTAR":"-0.00008977100000","CLASSIFICATION_TYPE":"U","PERIOD":"95.437","APOAPSIS":"540.362","MEAN_MOTION_DDOT":"0.0000000000000","OBJECT_TYPE":"PAYLOAD","LAUNCH_DATE":"2022-03-19","RCS_SIZE":"LARGE","EPOCH":"2023-05-21T20:29:37.406688","OBJECT_NAME":"STARLINK-3685"},{"PERIAPSIS":"539.058","INCLINATION":"53.2166","ECCENTRICITY":"0.00010200","RA_OF_ASC_NODE":"350.7545","SITE":"AFETR","REF_FRAME":"TEME","REV_AT_EPOCH":"6637","MEAN_MOTION":"15.08833980","TLE_LINE1":"1 52116U 22029AE  23141.86494296 -.00001108  00000-0 -51534-4 0  9993","MEAN_ELEMENT_THEORY":"SGP4","MEAN_ANOMALY":"263.1802","FILE":"3914061","DECAY_DATE":null,"MEAN_MOTION_DOT":"-0.00001108","ARG_OF_PERICENTER":"96.9306","TIME_SYSTEM":"UTC","GP_ID":"232283380","NORAD_CAT_ID":"52116","CLASSIFICATION_TYPE":"U","PERIOD":"95.438","MEAN_MOTION_DDOT":"0.0000000000000","APOAPSIS":"540.469","OBJECT_TYPE":"PAYLOAD","LAUNCH_DATE":"2022-03-19","RCS_SIZE":"LARGE","EPOCH":"2023-05-21T20:45:31.071744","OBJECT_NAME":"STARLINK-3735","ELEMENT_SET_NO":"999","CENTER_NAME":"EARTH","EPHEMERIS_TYPE":"0","SEMIMAJOR_AXIS":"6917.899","OBJECT_ID":"2022-029AE","TLE_LINE2":"2 52116  53.2166 350.7545 0001020  96.9306 263.1802 15.08833980 66374","COUNTRY_CODE":"US","BSTAR":"-0.00005153400000"},{"REV_AT_EPOCH":"6638","REF_FRAME":"TEME","MEAN_ANOMALY":"267.3671","MEAN_ELEMENT_THEORY":"SGP4","MEAN_MOTION":"15.08841691","TLE_LINE1":"1 52117U 22029AF  23141.84654940  .00000774  00000-0  66684-4 0  9994","PERIAPSIS":"539.060","INCLINATION":"53.2183","RA_OF_ASC_NODE":"350.8403","SITE":"AFETR","ECCENTRICITY":"0.00009840","TIME_SYSTEM":"UTC","ARG_OF_PERICENTER":"92.7434","NORAD_CAT_ID":"52117","GP_ID":"232283630","DECAY_DATE":null,"FILE":"3914061","MEAN_MOTION_DOT":"0.00000774","LAUNCH_DATE":"2022-03-19","OBJECT_NAME":"STARLINK-3738","RCS_SIZE":"LARGE","EPOCH":"2023-05-21T20:19:01.868160","APOAPSIS":"540.421","MEAN_MOTION_DDOT":"0.0000000000000","OBJECT_TYPE":"PAYLOAD","CLASSIFICATION_TYPE":"U","PERIOD":"95.437","BSTAR":"0.00006668400000","TLE_LINE2":"2 52117  53.2183 350.8403 0000984  92.7434 267.3671 15.08841691 66381","COUNTRY_CODE":"US","CENTER_NAME":"EARTH","ELEMENT_SET_NO":"999","SEMIMAJOR_AXIS":"6917.875","OBJECT_ID":"2022-029AF","EPHEMERIS_TYPE":"0"}];
